{
  "type": "FeatureCollection",
  "features": [
    {
      "type": "Feature",
      "properties": {
        "norad_id": 34070,
        "name": "COSMOS 2251 DEB",
        "group": "cosmos-2251-debris",
        "lat": -64.00116805584437,
        "lon": 84.22290866327008,
        "alt_km": 638.3631517747408,
        "timestamp": "2025-12-10T16:57:12.032618+00:00",
        "meta_object_name": "COSMOS 2251 DEB",
        "meta_object_id": "1993-036KH",
        "meta_epoch": "2025-12-10T09:16:50.455776",
        "meta_mean_motion": 14.76882805,
        "meta_eccentricity": 0.0018856,
        "meta_inclination": 74.0007,
        "meta_ra_of_asc_node": 120.888,
        "meta_arg_of_pericenter": 236.5308,
        "meta_mean_anomaly": 155.0528,
        "meta_ephemeris_type": 0,
        "meta_classification_type": "U",
        "meta_norad_cat_id": 34070,
        "meta_element_set_no": 999,
        "meta_rev_at_epoch": 88576,
        "meta_bstar": 0.0041757,
        "meta_mean_motion_dot": 0.00029537,
        "meta_mean_motion_ddot": 0,
        "tle_line1": "1 34070U 93036KH  25344.38669509  .00029537  00000+0  41757-2 0  9990",
        "tle_line2": "2 34070  74.0007 120.8880 0018856 236.5308 155.0528 14.76882805885765"
      },
      "geometry": {
        "type": "Point",
        "coordinates": [
          84.22290866327008,
          -64.00116805584437
        ]
      }
    },
    {
      "type": "Feature",
      "properties": {
        "norad_id": 34114,
        "name": "COSMOS 2251 DEB",
        "group": "cosmos-2251-debris",
        "lat": -65.31801128690438,
        "lon": 9.224398232430037,
        "alt_km": 725.5110424740915,
        "timestamp": "2025-12-10T16:57:12.032629+00:00",
        "meta_object_name": "COSMOS 2251 DEB",
        "meta_object_id": "1993-036KK",
        "meta_epoch": "2025-12-10T07:44:12.685056",
        "meta_mean_motion": 14.56324745,
        "meta_eccentricity": 0.004736,
        "meta_inclination": 74.0584,
        "meta_ra_of_asc_node": 48.4107,
        "meta_arg_of_pericenter": 44.1143,
        "meta_mean_anomaly": 33.0003,
        "meta_ephemeris_type": 0,
        "meta_classification_type": "U",
        "meta_norad_cat_id": 34114,
        "meta_element_set_no": 999,
        "meta_rev_at_epoch": 87766,
        "meta_bstar": 0.0025029,
        "meta_mean_motion_dot": 0.0001125,
        "meta_mean_motion_ddot": 0,
        "tle_line1": "1 34114U 93036KK  25344.32236904  .00011250  00000+0  25029-2 0  9999",
        "tle_line2": "2 34114  74.0584  48.4107 0047360  44.1143  33.0003 14.56324745877668"
      },
      "geometry": {
        "type": "Point",
        "coordinates": [
          9.224398232430037,
          -65.31801128690438
        ]
      }
    },
    {
      "type": "Feature",
      "properties": {
        "norad_id": 34115,
        "name": "COSMOS 2251 DEB",
        "group": "cosmos-2251-debris",
        "lat": -50.767758946193254,
        "lon": 86.51637690330506,
        "alt_km": 656.7984940517945,
        "timestamp": "2025-12-10T16:57:12.032639+00:00",
        "meta_object_name": "COSMOS 2251 DEB",
        "meta_object_id": "1993-036KL",
        "meta_epoch": "2025-12-10T02:55:08.768064",
        "meta_mean_motion": 14.79420773,
        "meta_eccentricity": 0.00284434,
        "meta_inclination": 74.0062,
        "meta_ra_of_asc_node": 247.1035,
        "meta_arg_of_pericenter": 71.434,
        "meta_mean_anomaly": 288.9922,
        "meta_ephemeris_type": 0,
        "meta_classification_type": "U",
        "meta_norad_cat_id": 34115,
        "meta_element_set_no": 999,
        "meta_rev_at_epoch": 89373,
        "meta_bstar": 0.0014799312,
        "meta_mean_motion_dot": 0.00011104,
        "meta_mean_motion_ddot": 0,
        "tle_line1": "1 34115U 93036KL  25344.12162926  .00011104  00000+0  14799-2 0  9990",
        "tle_line2": "2 34115  74.0062 247.1035 0028443  71.4340 288.9922 14.79420773893731"
      },
      "geometry": {
        "type": "Point",
        "coordinates": [
          86.51637690330506,
          -50.767758946193254
        ]
      }
    },
    {
      "type": "Feature",
      "properties": {
        "norad_id": 34116,
        "name": "COSMOS 2251 DEB",
        "group": "cosmos-2251-debris",
        "lat": 29.373223679355828,
        "lon": -164.11870190317904,
        "alt_km": 719.530896575161,
        "timestamp": "2025-12-10T16:57:12.032649+00:00",
        "meta_object_name": "COSMOS 2251 DEB",
        "meta_object_id": "1993-036KM",
        "meta_epoch": "2025-12-10T07:42:42.162048",
        "meta_mean_motion": 14.52952253,
        "meta_eccentricity": 0.00121,
        "meta_inclination": 74.0401,
        "meta_ra_of_asc_node": 187.338,
        "meta_arg_of_pericenter": 263.4064,
        "meta_mean_anomaly": 273.9293,
        "meta_ephemeris_type": 0,
        "meta_classification_type": "U",
        "meta_norad_cat_id": 34116,
        "meta_element_set_no": 999,
        "meta_rev_at_epoch": 88451,
        "meta_bstar": 0.00094692,
        "meta_mean_motion_dot": 3.881e-05,
        "meta_mean_motion_ddot": 0,
        "tle_line1": "1 34116U 93036KM  25344.32132132  .00003881  00000+0  94692-3 0  9993",
        "tle_line2": "2 34116  74.0401 187.3380 0012100 263.4064 273.9293 14.52952253884511"
      },
      "geometry": {
        "type": "Point",
        "coordinates": [
          -164.11870190317904,
          29.373223679355828
        ]
      }
    },
    {
      "type": "Feature",
      "properties": {
        "norad_id": 34117,
        "name": "COSMOS 2251 DEB",
        "group": "cosmos-2251-debris",
        "lat": -45.49595286273973,
        "lon": -29.342108372585102,
        "alt_km": 779.5191360657136,
        "timestamp": "2025-12-10T16:57:12.032660+00:00",
        "meta_object_name": "COSMOS 2251 DEB",
        "meta_object_id": "1993-036KN",
        "meta_epoch": "2025-12-10T10:30:21.055680",
        "meta_mean_motion": 14.39996052,
        "meta_eccentricity": 0.0054466,
        "meta_inclination": 74.0405,
        "meta_ra_of_asc_node": 348.0816,
        "meta_arg_of_pericenter": 65.1472,
        "meta_mean_anomaly": 295.5332,
        "meta_ephemeris_type": 0,
        "meta_classification_type": "U",
        "meta_norad_cat_id": 34117,
        "meta_element_set_no": 999,
        "meta_rev_at_epoch": 88090,
        "meta_bstar": 0.00096164,
        "meta_mean_motion_dot": 3.057e-05,
        "meta_mean_motion_ddot": 0,
        "tle_line1": "1 34117U 93036KN  25344.43774370  .00003057  00000+0  96164-3 0  9993",
        "tle_line2": "2 34117  74.0405 348.0816 0054466  65.1472 295.5332 14.39996052880900"
      },
      "geometry": {
        "type": "Point",
        "coordinates": [
          -29.342108372585102,
          -45.49595286273973
        ]
      }
    },
    {
      "type": "Feature",
      "properties": {
        "norad_id": 34118,
        "name": "COSMOS 2251 DEB",
        "group": "cosmos-2251-debris",
        "lat": -10.811681468036843,
        "lon": -109.73206015130921,
        "alt_km": 593.7304307425575,
        "timestamp": "2025-12-10T16:57:12.032670+00:00",
        "meta_object_name": "COSMOS 2251 DEB",
        "meta_object_id": "1993-036KP",
        "meta_epoch": "2025-12-10T11:05:55.152960",
        "meta_mean_motion": 14.93796733,
        "meta_eccentricity": 0.0059912,
        "meta_inclination": 73.9523,
        "meta_ra_of_asc_node": 253.9124,
        "meta_arg_of_pericenter": 84.8486,
        "meta_mean_anomaly": 33.3855,
        "meta_ephemeris_type": 0,
        "meta_classification_type": "U",
        "meta_norad_cat_id": 34118,
        "meta_element_set_no": 999,
        "meta_rev_at_epoch": 89142,
        "meta_bstar": 0.0029925,
        "meta_mean_motion_dot": 0.00032999,
        "meta_mean_motion_ddot": 0,
        "tle_line1": "1 34118U 93036KP  25344.46244390  .00032999  00000+0  29925-2 0  9998",
        "tle_line2": "2 34118  73.9523 253.9124 0059912  84.8486  33.3855 14.93796733891421"
      },
      "geometry": {
        "type": "Point",
        "coordinates": [
          -109.73206015130921,
          -10.811681468036843
        ]
      }
    },
    {
      "type": "Feature",
      "properties": {
        "norad_id": 34120,
        "name": "COSMOS 2251 DEB",
        "group": "cosmos-2251-debris",
        "lat": 12.3229781852812,
        "lon": -136.66142392047746,
        "alt_km": 789.9481965834948,
        "timestamp": "2025-12-10T16:57:12.032680+00:00",
        "meta_object_name": "COSMOS 2251 DEB",
        "meta_object_id": "1993-036KR",
        "meta_epoch": "2025-12-10T01:59:33.650304",
        "meta_mean_motion": 13.98678879,
        "meta_eccentricity": 0.01818435,
        "meta_inclination": 73.9915,
        "meta_ra_of_asc_node": 220.8223,
        "meta_arg_of_pericenter": 49.1022,
        "meta_mean_anomaly": 67.4561,
        "meta_ephemeris_type": 0,
        "meta_classification_type": "U",
        "meta_norad_cat_id": 34120,
        "meta_element_set_no": 999,
        "meta_rev_at_epoch": 85943,
        "meta_bstar": 0.00050360812,
        "meta_mean_motion_dot": 8.1e-06,
        "meta_mean_motion_ddot": 0,
        "tle_line1": "1 34120U 93036KR  25344.08302836  .00000810  00000+0  50361-3 0  9995",
        "tle_line2": "2 34120  73.9915 220.8223 0181843  49.1022  67.4561 13.98678879859432"
      },
      "geometry": {
        "type": "Point",
        "coordinates": [
          -136.66142392047746,
          12.3229781852812
        ]
      }
    }
  ]
}